{"fetched_at":"2026-07-23T17:55:06.836Z","source":"https://celestrak.org/NORAD/elements/gp.php?GROUP=kuiper&FORMAT=JSON","constellation":"kuiper","records":[{"OBJECT_NAME":"KUIPER-00117","OBJECT_ID":"2025-228C","EPOCH":"2026-07-23T03:54:25.640928","CLASSIFICATION_TYPE":"U","MEAN_MOTION":14.79905269,"ECCENTRICITY":0.00006394,"INCLINATION":51.8974,"RA_OF_ASC_NODE":119.0094,"ARG_OF_PERICENTER":114.8607,"MEAN_ANOMALY":245.2422,"EPHEMERIS_TYPE":0,"NORAD_CAT_ID":65949,"ELEMENT_SET_NO":999,"REV_AT_EPOCH":4332,"BSTAR":0.00023510121,"MEAN_MOTION_DOT":0.0000157,"MEAN_MOTION_DDOT":0},{"OBJECT_NAME":"KUIPER-00121","OBJECT_ID":"2025-228D","EPOCH":"2026-07-22T23:59:12.063552","CLASSIFICATION_TYPE":"U","MEAN_MOTION":14.79957196,"ECCENTRICITY":0.00008604,"INCLINATION":51.8992,"RA_OF_ASC_NODE":114.7474,"ARG_OF_PERICENTER":102.5238,"MEAN_ANOMALY":257.582,"EPHEMERIS_TYPE":0,"NORAD_CAT_ID":65950,"ELEMENT_SET_NO":999,"REV_AT_EPOCH":4337,"BSTAR":0.00056190987,"MEAN_MOTION_DOT":0.00004067,"MEAN_MOTION_DDOT":0},{"OBJECT_NAME":"KUIPER-00122","OBJECT_ID":"2025-228E","EPOCH":"2026-07-21T18:33:18.730080","CLASSIFICATION_TYPE":"U","MEAN_MOTION":14.79949284,"ECCENTRICITY":0.00008763,"INCLINATION":51.8997,"RA_OF_ASC_NODE":130.1423,"ARG_OF_PERICENTER":84.4264,"MEAN_ANOMALY":275.6798,"EPHEMERIS_TYPE":0,"NORAD_CAT_ID":65951,"ELEMENT_SET_NO":999,"REV_AT_EPOCH":4305,"BSTAR":0.00034290136,"MEAN_MOTION_DOT":0.00002395,"MEAN_MOTION_DDOT":0},{"OBJECT_NAME":"KUIPER-00123","OBJECT_ID":"2025-228F","EPOCH":"2026-07-23T00:32:17.462976","CLASSIFICATION_TYPE":"U","MEAN_MOTION":14.79930127,"ECCENTRICITY":0.00009792,"INCLINATION":51.8982,"RA_OF_ASC_NODE":124.6297,"ARG_OF_PERICENTER":76.1862,"MEAN_ANOMALY":283.9209,"EPHEMERIS_TYPE":0,"NORAD_CAT_ID":65952,"ELEMENT_SET_NO":999,"REV_AT_EPOCH":4323,"BSTAR":-0.00011052063,"MEAN_MOTION_DOT":-0.00001064,"MEAN_MOTION_DDOT":0},{"OBJECT_NAME":"KUIPER-00124","OBJECT_ID":"2025-228G","EPOCH":"2026-07-23T03:58:24.848832","CLASSIFICATION_TYPE":"U","MEAN_MOTION":14.79932343,"ECCENTRICITY":0.00008725,"INCLINATION":51.8977,"RA_OF_ASC_NODE":116.4871,"ARG_OF_PERICENTER":67.4649,"MEAN_ANOMALY":292.6405,"EPHEMERIS_TYPE":0,"NORAD_CAT_ID":65953,"ELEMENT_SET_NO":999,"REV_AT_EPOCH":4336,"BSTAR":0.00021931227,"MEAN_MOTION_DOT":0.00001451,"MEAN_MOTION_DDOT":0},{"OBJECT_NAME":"KUIPER-00125","OBJECT_ID":"2025-228H","EPOCH":"2026-07-23T02:44:28.677120","CLASSIFICATION_TYPE":"U","MEAN_MOTION":14.79962412,"ECCENTRICITY":0.00008941,"INCLINATION":51.9006,"RA_OF_ASC_NODE":101.7568,"ARG_OF_PERICENTER":98.9912,"MEAN_ANOMALY":261.1152,"EPHEMERIS_TYPE":0,"NORAD_CAT_ID":65954,"ELEMENT_SET_NO":999,"REV_AT_EPOCH":4356,"BSTAR":0.00050298165,"MEAN_MOTION_DOT":0.00003618,"MEAN_MOTION_DDOT":0},{"OBJECT_NAME":"KUIPER-00126","OBJECT_ID":"2025-228J","EPOCH":"2026-07-21T12:08:11.241024","CLASSIFICATION_TYPE":"U","MEAN_MOTION":14.79958404,"ECCENTRICITY":0.00009679,"INCLINATION":51.8993,"RA_OF_ASC_NODE":128.8562,"ARG_OF_PERICENTER":86.2073,"MEAN_ANOMALY":273.9,"EPHEMERIS_TYPE":0,"NORAD_CAT_ID":65955,"ELEMENT_SET_NO":999,"REV_AT_EPOCH":4304,"BSTAR":0.00036308211,"MEAN_MOTION_DOT":0.00002549,"MEAN_MOTION_DDOT":0},{"OBJECT_NAME":"KUIPER-00127","OBJECT_ID":"2025-228K","EPOCH":"2026-07-23T04:26:37.649472","CLASSIFICATION_TYPE":"U","MEAN_MOTION":14.79957181,"ECCENTRICITY":0.00010228,"INCLINATION":51.8993,"RA_OF_ASC_NODE":113.9012,"ARG_OF_PERICENTER":88.1519,"MEAN_ANOMALY":271.9561,"EPHEMERIS_TYPE":0,"NORAD_CAT_ID":65956,"ELEMENT_SET_NO":999,"REV_AT_EPOCH":4340,"BSTAR":0.00053435215,"MEAN_MOTION_DOT":0.00003857,"MEAN_MOTION_DDOT":0},{"OBJECT_NAME":"KUIPER-00128","OBJECT_ID":"2025-228L","EPOCH":"2026-07-23T00:47:47.706720","CLASSIFICATION_TYPE":"U","MEAN_MOTION":14.79933493,"ECCENTRICITY":0.00010498,"INCLINATION":51.9,"RA_OF_ASC_NODE":114.6377,"ARG_OF_PERICENTER":95.4705,"MEAN_ANOMALY":264.6377,"EPHEMERIS_TYPE":0,"NORAD_CAT_ID":65957,"ELEMENT_SET_NO":999,"REV_AT_EPOCH":4337,"BSTAR":-0.00048999641,"MEAN_MOTION_DOT":-0.00003954,"MEAN_MOTION_DDOT":0},{"OBJECT_NAME":"KUIPER-00129","OBJECT_ID":"2025-228M","EPOCH":"2026-07-23T03:21:25.591392","CLASSIFICATION_TYPE":"U","MEAN_MOTION":14.79935138,"ECCENTRICITY":0.00009101,"INCLINATION":51.9004,"RA_OF_ASC_NODE":109.1479,"ARG_OF_PERICENTER":93.0762,"MEAN_ANOMALY":267.0304,"EPHEMERIS_TYPE":0,"NORAD_CAT_ID":65958,"ELEMENT_SET_NO":999,"REV_AT_EPOCH":4346,"BSTAR":-0.00069628922,"MEAN_MOTION_DOT":-0.00005525,"MEAN_MOTION_DDOT":0},{"OBJECT_NAME":"KUIPER-00130","OBJECT_ID":"2025-228N","EPOCH":"2026-07-23T04:06:11.460672","CLASSIFICATION_TYPE":"U","MEAN_MOTION":14.79960515,"ECCENTRICITY":0.00007561,"INCLINATION":51.9012,"RA_OF_ASC_NODE":111.5455,"ARG_OF_PERICENTER":94.1277,"MEAN_ANOMALY":265.9772,"EPHEMERIS_TYPE":0,"NORAD_CAT_ID":65959,"ELEMENT_SET_NO":999,"REV_AT_EPOCH":3372,"BSTAR":0.00054147602,"MEAN_MOTION_DOT":0.00003912,"MEAN_MOTION_DDOT":0},{"OBJECT_NAME":"KUIPER-00134","OBJECT_ID":"2025-228P","EPOCH":"2026-07-22T18:52:13.502496","CLASSIFICATION_TYPE":"U","MEAN_MOTION":15.42009939,"ECCENTRICITY":0.00069484,"INCLINATION":51.8719,"RA_OF_ASC_NODE":24.0757,"ARG_OF_PERICENTER":82.0575,"MEAN_ANOMALY":278.1202,"EPHEMERIS_TYPE":0,"NORAD_CAT_ID":65960,"ELEMENT_SET_NO":999,"REV_AT_EPOCH":4461,"BSTAR":0.0013551987,"MEAN_MOTION_DOT":0.00058817,"MEAN_MOTION_DDOT":0},{"OBJECT_NAME":"KUIPER-00135","OBJECT_ID":"2025-228Q","EPOCH":"2026-07-23T00:03:05.514624","CLASSIFICATION_TYPE":"U","MEAN_MOTION":14.79963381,"ECCENTRICITY":0.000089,"INCLINATION":51.9017,"RA_OF_ASC_NODE":112.3458,"ARG_OF_PERICENTER":90.4516,"MEAN_ANOMALY":269.6548,"EPHEMERIS_TYPE":0,"NORAD_CAT_ID":65961,"ELEMENT_SET_NO":999,"REV_AT_EPOCH":4340,"BSTAR":0.00051983432,"MEAN_MOTION_DOT":0.00003747,"MEAN_MOTION_DDOT":0},{"OBJECT_NAME":"KUIPER-00136","OBJECT_ID":"2025-228R","EPOCH":"2026-07-23T00:55:35.210208","CLASSIFICATION_TYPE":"U","MEAN_MOTION":14.79962193,"ECCENTRICITY":0.00009219,"INCLINATION":51.8999,"RA_OF_ASC_NODE":109.6387,"ARG_OF_PERICENTER":91.0868,"MEAN_ANOMALY":269.02,"EPHEMERIS_TYPE":0,"NORAD_CAT_ID":65962,"ELEMENT_SET_NO":999,"REV_AT_EPOCH":4344,"BSTAR":0.00048955876,"MEAN_MOTION_DOT":0.00003515,"MEAN_MOTION_DDOT":0},{"OBJECT_NAME":"KUIPER-00137","OBJECT_ID":"2025-228S","EPOCH":"2026-07-23T02:36:42.532704","CLASSIFICATION_TYPE":"U","MEAN_MOTION":14.79932504,"ECCENTRICITY":0.00011121,"INCLINATION":51.9032,"RA_OF_ASC_NODE":106.8243,"ARG_OF_PERICENTER":93.8248,"MEAN_ANOMALY":266.2842,"EPHEMERIS_TYPE":0,"NORAD_CAT_ID":65963,"ELEMENT_SET_NO":999,"REV_AT_EPOCH":4349,"BSTAR":0.00056216345,"MEAN_MOTION_DOT":0.00004067,"MEAN_MOTION_DDOT":0},{"OBJECT_NAME":"KUIPER-00138","OBJECT_ID":"2025-228T","EPOCH":"2026-07-22T17:45:46.086336","CLASSIFICATION_TYPE":"U","MEAN_MOTION":14.79924835,"ECCENTRICITY":0.00008114,"INCLINATION":51.8977,"RA_OF_ASC_NODE":105.8785,"ARG_OF_PERICENTER":98.9911,"MEAN_ANOMALY":261.1143,"EPHEMERIS_TYPE":0,"NORAD_CAT_ID":65964,"ELEMENT_SET_NO":999,"REV_AT_EPOCH":4347,"BSTAR":0.00046854645,"MEAN_MOTION_DOT":0.00003352,"MEAN_MOTION_DDOT":0}]}
