KUIPER-00117            
1 65949U 25228C   26204.16279677  .00001570  00000+0  23510-3 0  9997
2 65949  51.8974 119.0094 0000639 114.8607 245.2422 14.79905269 43323
KUIPER-00121            
1 65950U 25228D   26203.99944518  .00004067  00000+0  56191-3 0  9997
2 65950  51.8992 114.7474 0000860 102.5238 257.5820 14.79957196 43378
KUIPER-00122            
1 65951U 25228E   26202.77313345  .00002395  00000+0  34290-3 0  9999
2 65951  51.8997 130.1423 0000876  84.4264 275.6798 14.79949284 43053
KUIPER-00123            
1 65952U 25228F   26204.02242434 -.00001064  00000+0 -11052-3 0  9995
2 65952  51.8982 124.6297 0000979  76.1862 283.9209 14.79930127 43236
KUIPER-00124            
1 65953U 25228G   26204.16556538  .00001451  00000+0  21931-3 0  9999
2 65953  51.8977 116.4871 0000872  67.4649 292.6405 14.79932343 43367
KUIPER-00125            
1 65954U 25228H   26204.11422080  .00003618  00000+0  50298-3 0  9994
2 65954  51.9006 101.7568 0000894  98.9912 261.1152 14.79962412 43560
KUIPER-00126            
1 65955U 25228J   26202.50568566  .00002549  00000+0  36308-3 0  9994
2 65955  51.8993 128.8562 0000967  86.2073 273.9000 14.79958404 43040
KUIPER-00127            
1 65956U 25228K   26204.18515798  .00003857  00000+0  53435-3 0  9993
2 65956  51.8993 113.9012 0001022  88.1519 271.9561 14.79957181 43406
KUIPER-00128            
1 65957U 25228L   26204.03319105 -.00003954  00000+0 -49000-3 0  9995
2 65957  51.9000 114.6377 0001049  95.4705 264.6377 14.79933493 43376
KUIPER-00129            
1 65958U 25228M   26204.13987953 -.00005525  00000+0 -69629-3 0  9994
2 65958  51.9004 109.1479 0000910  93.0762 267.0304 14.79935138 43461
KUIPER-00130            
1 65959U 25228N   26204.17096598  .00003912  00000+0  54148-3 0  9991
2 65959  51.9012 111.5455 0000756  94.1277 265.9772 14.79960515 33724
KUIPER-00134            
1 65960U 25228P   26203.78626739  .00058817  00000+0  13552-2 0  9992
2 65960  51.8719  24.0757 0006948  82.0575 278.1202 15.42009939 44617
KUIPER-00135            
1 65961U 25228Q   26204.00214716  .00003747  00000+0  51983-3 0  9990
2 65961  51.9017 112.3458 0000890  90.4516 269.6548 14.79963381 43400
KUIPER-00136            
1 65962U 25228R   26204.03860197  .00003515  00000+0  48956-3 0  9993
2 65962  51.8999 109.6387 0000921  91.0868 269.0200 14.79962193 43444
KUIPER-00137            
1 65963U 25228S   26204.10882561  .00004067  00000+0  56216-3 0  9992
2 65963  51.9032 106.8243 0001112  93.8248 266.2842 14.79932504 43498
KUIPER-00138            
1 65964U 25228T   26203.74011674  .00003352  00000+0  46855-3 0  9995
2 65964  51.8977 105.8785 0000811  98.9911 261.1143 14.79924835 43478
